start=new Date('2022-11-24T00:00:00.000Z').valueOf();
sats=[{"PERIAPSIS":"546.271","ELEMENT_SET_NO":"999","MEAN_ELEMENT_THEORY":"SGP4","TLE_LINE1":"1 46075U 20055BA  22327.61417608  .00001060  00000-0  90037-4 0  9993","APOAPSIS":"548.119","SITE":"AFETR","LAUNCH_DATE":"2020-08-07","INCLINATION":"53.0580","ARG_OF_PERICENTER":"72.2560","BSTAR":"0.00009003700000","COUNTRY_CODE":"US","NORAD_CAT_ID":"46075","RCS_SIZE":"LARGE","OBJECT_ID":"2020-055BA","ECCENTRICITY":"0.00013340","MEAN_ANOMALY":"287.8574","TIME_SYSTEM":"UTC","OBJECT_NAME":"STARLINK-1551","PERIOD":"95.592","CENTER_NAME":"EARTH","DECAY_DATE":null,"MEAN_MOTION_DDOT":"0.0000000000000","REV_AT_EPOCH":"12812","SEMIMAJOR_AXIS":"6925.330","TLE_LINE2":"2 46075  53.0580  92.9491 0001334  72.2560 287.8574 15.06406100128120","MEAN_MOTION_DOT":"0.00001060","MEAN_MOTION":"15.06406100","EPOCH":"2022-11-23T14:44:24.813312","FILE":"3668355","CLASSIFICATION_TYPE":"U","REF_FRAME":"TEME","GP_ID":"218598937","EPHEMERIS_TYPE":"0","RA_OF_ASC_NODE":"92.9491","OBJECT_TYPE":"PAYLOAD"},{"NORAD_CAT_ID":"46076","RCS_SIZE":"LARGE","COUNTRY_CODE":"US","BSTAR":"-0.00006283000000","INCLINATION":"53.0557","ARG_OF_PERICENTER":"60.6561","LAUNCH_DATE":"2020-08-07","SITE":"AFETR","TLE_LINE1":"1 46076U 20055BB  22327.70633014 -.00001217  00000-0 -62830-4 0  9991","MEAN_ELEMENT_THEORY":"SGP4","APOAPSIS":"548.341","PERIAPSIS":"546.122","ELEMENT_SET_NO":"999","OBJECT_TYPE":"PAYLOAD","REF_FRAME":"TEME","EPHEMERIS_TYPE":"0","GP_ID":"218597194","RA_OF_ASC_NODE":"92.5384","FILE":"3668355","CLASSIFICATION_TYPE":"U","EPOCH":"2022-11-23T16:57:06.924096","MEAN_MOTION_DOT":"-0.00001217","MEAN_MOTION":"15.06394113","SEMIMAJOR_AXIS":"6925.367","TLE_LINE2":"2 46076  53.0557  92.5384 0001602  60.6561 299.4588 15.06394113128126","REV_AT_EPOCH":"12812","DECAY_DATE":null,"CENTER_NAME":"EARTH","MEAN_MOTION_DDOT":"0.0000000000000","PERIOD":"95.593","MEAN_ANOMALY":"299.4588","ECCENTRICITY":"0.00016020","OBJECT_NAME":"STARLINK-1552","TIME_SYSTEM":"UTC","OBJECT_ID":"2020-055BB"},{"TLE_LINE1":"1 46077U 20055BC  22327.62154937  .00001373  00000-0  11103-3 0  9992","APOAPSIS":"548.132","MEAN_ELEMENT_THEORY":"SGP4","SITE":"AFETR","ELEMENT_SET_NO":"999","PERIAPSIS":"546.310","NORAD_CAT_ID":"46077","RCS_SIZE":"LARGE","LAUNCH_DATE":"2020-08-07","INCLINATION":"53.0557","ARG_OF_PERICENTER":"83.2770","BSTAR":"0.00011103000000","COUNTRY_CODE":"US","CENTER_NAME":"EARTH","DECAY_DATE":null,"MEAN_MOTION_DDOT":"0.0000000000000","REV_AT_EPOCH":"12808","OBJECT_ID":"2020-055BC","ECCENTRICITY":"0.00013160","MEAN_ANOMALY":"276.8369","TIME_SYSTEM":"UTC","OBJECT_NAME":"STARLINK-1559","PERIOD":"95.592","FILE":"3668355","CLASSIFICATION_TYPE":"U","REF_FRAME":"TEME","RA_OF_ASC_NODE":"92.9194","GP_ID":"218597444","EPHEMERIS_TYPE":"0","OBJECT_TYPE":"PAYLOAD","SEMIMAJOR_AXIS":"6925.356","TLE_LINE2":"2 46077  53.0557  92.9194 0001316  83.2770 276.8369 15.06397606128086","MEAN_MOTION_DOT":"0.00001373","MEAN_MOTION":"15.06397606","EPOCH":"2022-11-23T14:55:01.865568"},{"OBJECT_TYPE":"PAYLOAD","RA_OF_ASC_NODE":"93.9054","GP_ID":"218540745","EPHEMERIS_TYPE":"0","REF_FRAME":"TEME","CLASSIFICATION_TYPE":"U","FILE":"3668134","EPOCH":"2022-11-23T09:36:34.584192","MEAN_MOTION_DOT":"0.00005310","MEAN_MOTION":"15.06373213","TLE_LINE2":"2 46078  53.0546  93.9054 0001838  52.2661 307.8494 15.06373213128065","SEMIMAJOR_AXIS":"6925.431","REV_AT_EPOCH":"12806","MEAN_MOTION_DDOT":"0.0000000000000","CENTER_NAME":"EARTH","DECAY_DATE":null,"PERIOD":"95.594","OBJECT_NAME":"STARLINK-1563","TIME_SYSTEM":"UTC","ECCENTRICITY":"0.00018380","MEAN_ANOMALY":"307.8494","OBJECT_ID":"2020-055BD","RCS_SIZE":"LARGE","NORAD_CAT_ID":"46078","COUNTRY_CODE":"US","BSTAR":"0.00037536000000","ARG_OF_PERICENTER":"52.2661","INCLINATION":"53.0546","LAUNCH_DATE":"2020-08-07","SITE":"AFETR","MEAN_ELEMENT_THEORY":"SGP4","TLE_LINE1":"1 46078U 20055BD  22327.40040028  .00005310  00000-0  37536-3 0  9997","APOAPSIS":"548.569","PERIAPSIS":"546.023","ELEMENT_SET_NO":"999"},{"OBJECT_TYPE":"PAYLOAD","FILE":"3668355","CLASSIFICATION_TYPE":"U","REF_FRAME":"TEME","GP_ID":"218598438","EPHEMERIS_TYPE":"0","RA_OF_ASC_NODE":"92.7512","MEAN_MOTION_DOT":"-0.00000256","MEAN_MOTION":"15.06398360","EPOCH":"2022-11-23T15:48:06.188544","SEMIMAJOR_AXIS":"6925.354","TLE_LINE2":"2 46079  53.0563  92.7512 0001278  71.2890 288.8238 15.06398360128136","REV_AT_EPOCH":"12813","CENTER_NAME":"EARTH","DECAY_DATE":null,"MEAN_MOTION_DDOT":"0.0000000000000","PERIOD":"95.592","OBJECT_ID":"2020-055BE","MEAN_ANOMALY":"288.8238","ECCENTRICITY":"0.00012780","TIME_SYSTEM":"UTC","OBJECT_NAME":"STARLINK-1566","NORAD_CAT_ID":"46079","RCS_SIZE":"LARGE","BSTAR":"0.00000169280000","COUNTRY_CODE":"US","LAUNCH_DATE":"2020-08-07","INCLINATION":"53.0563","ARG_OF_PERICENTER":"71.2890","MEAN_ELEMENT_THEORY":"SGP4","TLE_LINE1":"1 46079U 20055BE  22327.65840496 -.00000256  00000-0  16928-5 0  9991","APOAPSIS":"548.104","SITE":"AFETR","PERIAPSIS":"546.334","ELEMENT_SET_NO":"999"},{"ELEMENT_SET_NO":"999","PERIAPSIS":"546.315","SITE":"AFETR","MEAN_ELEMENT_THEORY":"SGP4","TLE_LINE1":"1 46080U 20055BF  22327.61691849 -.00000330  00000-0 -32629-5 0  9995","APOAPSIS":"548.166","INCLINATION":"53.0552","ARG_OF_PERICENTER":"68.1122","LAUNCH_DATE":"2020-08-07","COUNTRY_CODE":"US","BSTAR":"-0.00000326290000","NORAD_CAT_ID":"46080","RCS_SIZE":"LARGE","MEAN_ANOMALY":"292.0008","ECCENTRICITY":"0.00013360","TIME_SYSTEM":"UTC","OBJECT_NAME":"STARLINK-1568","OBJECT_ID":"2020-055BF","PERIOD":"95.593","CENTER_NAME":"EARTH","DECAY_DATE":null,"MEAN_MOTION_DDOT":"0.0000000000000","REV_AT_EPOCH":"12810","SEMIMAJOR_AXIS":"6925.375","TLE_LINE2":"2 46080  53.0552  92.9315 0001336  68.1122 292.0008 15.06391228128102","EPOCH":"2022-11-23T14:48:21.757536","MEAN_MOTION_DOT":"-0.00000330","MEAN_MOTION":"15.06391228","REF_FRAME":"TEME","EPHEMERIS_TYPE":"0","GP_ID":"218597695","RA_OF_ASC_NODE":"92.9315","FILE":"3668355","CLASSIFICATION_TYPE":"U","OBJECT_TYPE":"PAYLOAD"},{"PERIAPSIS":"545.872","ELEMENT_SET_NO":"999","APOAPSIS":"548.608","TLE_LINE1":"1 46081U 20055BG  22327.78372838 -.00000651  00000-0 -24805-4 0  9990","MEAN_ELEMENT_THEORY":"SGP4","SITE":"AFETR","LAUNCH_DATE":"2020-08-07","ARG_OF_PERICENTER":"38.8003","INCLINATION":"53.0559","BSTAR":"-0.00002480500000","COUNTRY_CODE":"US","RCS_SIZE":"LARGE","NORAD_CAT_ID":"46081","OBJECT_ID":"2020-055BG","TIME_SYSTEM":"UTC","OBJECT_NAME":"STARLINK-1571","ECCENTRICITY":"0.00019750","MEAN_ANOMALY":"321.3128","PERIOD":"95.593","MEAN_MOTION_DDOT":"0.0000000000000","DECAY_DATE":null,"CENTER_NAME":"EARTH","REV_AT_EPOCH":"12814","TLE_LINE2":"2 46081  53.0559  92.1748 0001975  38.8003 321.3128 15.06391445128147","SEMIMAJOR_AXIS":"6925.375","MEAN_MOTION":"15.06391445","MEAN_MOTION_DOT":"-0.00000651","EPOCH":"2022-11-23T18:48:34.132032","CLASSIFICATION_TYPE":"U","FILE":"3668355","GP_ID":"218597945","RA_OF_ASC_NODE":"92.1748","EPHEMERIS_TYPE":"0","REF_FRAME":"TEME","OBJECT_TYPE":"PAYLOAD"},{"BSTAR":"0.00019145000000","COUNTRY_CODE":"US","LAUNCH_DATE":"2020-08-07","INCLINATION":"53.0571","ARG_OF_PERICENTER":"82.6440","NORAD_CAT_ID":"46082","RCS_SIZE":"LARGE","PERIAPSIS":"546.149","ELEMENT_SET_NO":"999","MEAN_ELEMENT_THEORY":"SGP4","TLE_LINE1":"1 46082U 20055BH  22327.67315645  .00002571  00000-0  19145-3 0  9993","APOAPSIS":"548.304","SITE":"AFETR","MEAN_MOTION_DOT":"0.00002571","MEAN_MOTION":"15.06395711","EPOCH":"2022-11-23T16:09:20.717280","SEMIMAJOR_AXIS":"6925.362","TLE_LINE2":"2 46082  53.0571  92.6915 0001556  82.6440 277.4726 15.06395711128134","OBJECT_TYPE":"PAYLOAD","FILE":"3668355","CLASSIFICATION_TYPE":"U","REF_FRAME":"TEME","GP_ID":"218598195","EPHEMERIS_TYPE":"0","RA_OF_ASC_NODE":"92.6915","PERIOD":"95.592","OBJECT_ID":"2020-055BH","MEAN_ANOMALY":"277.4726","ECCENTRICITY":"0.00015560","TIME_SYSTEM":"UTC","OBJECT_NAME":"STARLINK-1578","REV_AT_EPOCH":"12813","DECAY_DATE":null,"CENTER_NAME":"EARTH","MEAN_MOTION_DDOT":"0.0000000000000"},{"TIME_SYSTEM":"UTC","OBJECT_NAME":"STARLINK-1579","MEAN_ANOMALY":"272.8564","ECCENTRICITY":"0.00011830","OBJECT_ID":"2020-055BJ","PERIOD":"95.593","MEAN_MOTION_DDOT":"0.0000000000000","CENTER_NAME":"EARTH","DECAY_DATE":null,"REV_AT_EPOCH":"12815","TLE_LINE2":"2 46083  53.0553  91.9275 0001183  87.2560 272.8564 15.06393695128156","SEMIMAJOR_AXIS":"6925.368","EPOCH":"2022-11-23T20:13:29.059680","MEAN_MOTION_DOT":"0.00001378","MEAN_MOTION":"15.06393695","EPHEMERIS_TYPE":"0","GP_ID":"218598938","RA_OF_ASC_NODE":"91.9275","REF_FRAME":"TEME","CLASSIFICATION_TYPE":"U","FILE":"3668355","OBJECT_TYPE":"PAYLOAD","PERIAPSIS":"546.414","ELEMENT_SET_NO":"999","SITE":"AFETR","MEAN_ELEMENT_THEORY":"SGP4","TLE_LINE1":"1 46083U 20055BJ  22327.84269745  .00001378  00000-0  11137-3 0  9999","APOAPSIS":"548.052","ARG_OF_PERICENTER":"87.2560","INCLINATION":"53.0553","LAUNCH_DATE":"2020-08-07","COUNTRY_CODE":"US","BSTAR":"0.00011137000000","RCS_SIZE":"LARGE","NORAD_CAT_ID":"46083"},{"RA_OF_ASC_NODE":"294.1584","GP_ID":"218541000","EPHEMERIS_TYPE":"0","REF_FRAME":"TEME","CLASSIFICATION_TYPE":"U","FILE":"3668134","OBJECT_TYPE":"PAYLOAD","TLE_LINE2":"2 46117  53.0574 294.1584 0001885  52.3853 307.7307 15.06397105125121","SEMIMAJOR_AXIS":"6925.357","EPOCH":"2022-11-23T08:16:56.754048","MEAN_MOTION":"15.06397105","MEAN_MOTION_DOT":"-0.00000074","MEAN_MOTION_DDOT":"0.0000000000000","CENTER_NAME":"EARTH","DECAY_DATE":null,"REV_AT_EPOCH":"12512","TIME_SYSTEM":"UTC","OBJECT_NAME":"STARLINK-1585","ECCENTRICITY":"0.00018850","MEAN_ANOMALY":"307.7307","OBJECT_ID":"2020-057A","PERIOD":"95.592","RCS_SIZE":"LARGE","NORAD_CAT_ID":"46117","ARG_OF_PERICENTER":"52.3853","INCLINATION":"53.0574","LAUNCH_DATE":"2020-08-18","COUNTRY_CODE":"US","BSTAR":"0.00001393200000","SITE":"AFETR","MEAN_ELEMENT_THEORY":"SGP4","TLE_LINE1":"1 46117U 20057A   22327.34510132 -.00000074  00000-0  13932-4 0  9992","APOAPSIS":"548.528","PERIAPSIS":"545.917","ELEMENT_SET_NO":"999"}];
